#dP2021  1 23  0  0  0.00000000      96 __u+U ITR00 EXT  IAC
## 2141 518400.00000000   900.00000000 59237 0.0000000000000
+  113   C06C07C08C09C10C11C12C14C16C19C20C21C22C23C24C25C26
+        C27C28C29C30C32C33C34C35C36C37C38C39C40C43C44C45C46
+        E01E02E03E04E05E07E08E09E11E12E13E14E15E18E19E21E24
+        E25E26E27E30E31E33E36G01G02G03G04G05G06G07G08G09G10
+        G11G12G13G14G16G17G18G19G20G21G22G23G24G25G26G27G28
+        G29G30G31G32J01J02J03R01R02R03R04R05R07R08R09R11R12
+        R13R14R15R16R17R18R19R20R21R22R24  0  0  0  0  0  0
++        10  9 10 10 10  9  7  9 10  9  8  8  9  8  7 10  8
++         9  8  8  9 10  8  9 10  8  7 11 10 10 10 10 11 11
++         9  7  8  8  8  9  8  8  8  9  8  8  9  8  7  9  8
++         8  8  8  7  8  8  8  8  8  7  8  7  8  7  7  8  8
++         9  7  7  9  8  7  8  7  7  8  7  8  8  8  9  8  7
++         8  8  8  7 12 10  9  8  8  9  8  8  8  7  9  8  9
++        10  9  9  8  8  7  8 10  8  9  6  0  0  0  0  0  0
%c M  cc GPS ccc cccc cccc cccc cccc ccccc ccccc ccccc ccccc
%c cc cc ccc ccc cccc cccc cccc cccc ccccc ccccc ccccc ccccc
%f  0.0000000  0.000000000  0.00000000000  0.000000000000000
%f  0.0000000  0.000000000  0.00000000000  0.000000000000000
%i    0    0    0    0      0      0      0      0         0
%i    0    0    0    0      0      0      0      0         0
/* IAC                                ULTRA-RAPID PREDICTION
/* S/V CLOCKS ARE ALIGNED TO GNSS TIME                      
/* G:C1WC2W R:C1PC2P E:C1XC5X C:C2IC6I J:C1CC2S             
/* PCV:IGS14_2134 OL/AL:FES2004  NONE     YN ORB:CoN CLK:CoN
*  2021 01 23 12 30  0.00000000
PC06  -6236.745855  27448.644000 -30843.173978     28.756728
PC07 -20667.826158  26562.466982  25344.065464   -254.833818
PC08 -16688.768797  38546.228622   5619.779181   -926.346997
PC09   7326.442334  35139.467686 -21494.284314    783.888224
PC10  -7105.206993  27742.213585  31040.945950    -99.040380
PC11  19125.450212  14737.885461 -13958.052696   -905.865183
PC12  12408.563908  24822.194831   3078.566540    748.505067
PC14  25547.908006   5945.465584  -9576.031131    -32.385681
PC16  -4746.349544  27994.563036 -31029.422933   -669.374268
PC19 -27891.747466    460.463227    520.133669    701.305323
PC20 -20071.675866 -10638.983849  16204.563751   -910.302539
PC21   -109.318656  15893.681315 -22922.475661   -805.153806
PC22 -19725.258436  11597.227655 -15957.567172   -854.068474
PC23  17051.722565 -21111.315175   6482.214485   -879.330956
PC24   9322.948529  14995.034599  21604.615218   -746.580137
PC25  18831.794298  -5503.492605  19828.979561   -907.510459
PC26  -4161.840050  25211.687695  11251.624220    958.884602
PC27  -5162.199567 -24800.841082 -11739.808599    471.172220
PC28   9818.365661 -13649.331953 -22263.506787   -118.305886
PC29 -19199.616702  -4701.227106  19698.173165    342.458721
PC30 -17679.236646 -20974.766874   5193.639913    435.062318
PC32     35.851375 -15921.921243  22930.154514   -885.810939
PC33  27901.437023   -575.079955   -567.262181   -928.921184
PC34  17877.656260  20604.411892  -5821.607119   -756.649648
PC35  -9630.283584  13737.480111  22295.208582   -452.273626
PC36 -18888.303573   4759.337133 -19966.537944   -770.601213
PC37   5359.696436 -25248.126000 -10565.418228   -861.053393
PC38 -15379.728262  39157.812248   3678.480777    125.617572
PC39  -1547.804531  28997.093400 -30522.007004     27.715411
PC40 -15428.628716  22591.836290  32055.322214    124.142923
PC43  19355.278440   5182.482376 -19413.275487   -564.947903
PC44   5749.471847  24577.345714  11861.591317      1.275553
PC45 -16956.184426  21223.312858  -6452.563910    342.822838
PC46  -9895.751956 -14116.274047 -21934.728523    439.017856
PE01 -25034.287754   5038.853876 -14980.560530  -1030.779535
PE02  25047.699484  -5115.428394  14899.153806    193.123745
PE03  27501.705814   5575.184609   9431.814812   -390.509222
PE04 -17001.069676   9454.115349 -22310.792711   -694.725604
PE05  22007.293033  17546.537165  -9165.871615   -310.552689
PE07  -3727.912844 -19169.930459  22242.207721   -491.391940
PE08  16636.877531  -9626.336701  22509.339862   6057.802457
PE09   4067.005299  19067.552277 -22277.032243   5789.629893
PE11    511.578748  29401.350772   3317.831826   6427.287734
PE12 -11473.143391  18556.397177  20005.930495   5392.454788
PE13   -384.609339 -29367.340808  -3695.442268    410.779783
PE14  26784.803130   9296.534580 -12906.422352  -1304.637961
PE15  11298.990154 -18663.532902 -19991.176628    832.892222
PE18 -20095.729176 -15578.402406   2317.684230  -1425.964262
PE19 -27709.143935  -7318.200215  -7416.436102    185.559855
PE21 -13017.792350 -10823.617141 -24284.368210   -644.424948
PE24  -7663.095302  21068.397941  19330.979097   -704.788379
PE25  12840.081416  10969.863537  24312.943416   -524.916533
PE26 -12113.892164 -22310.164659  15231.158021   2232.392532
PE27   6919.686193 -20931.246545 -19743.211762     45.165672
PE30  23118.694178 -18237.334628  -2911.235255   3239.952310
PE31 -22674.810108  18686.714384   3634.278278   -477.616581
PE33 -16329.007950  -3020.010314  24517.151389   -465.092745
PE36  11805.651568  22796.152843 -14719.395175    450.423368
PG01 -13406.265577  15290.398839  16658.121041    775.191741
PG02  13658.757035   8882.485532 -20315.235671   -569.100083
PG03 -22283.769921  13274.934869  -5537.157340    -63.739773
PG04 -15311.997057   6233.823516 -20793.725419   -174.911160
PG05  23557.284501   -911.006909 -12567.121802    -31.744814
PG06   6542.434819  21520.662942 -14021.982360     -4.329971
PG07  -6321.333641  25193.243854  -3762.785153     32.279838
PG08 -20365.816817   -399.944408  17209.977785     -7.638231
PG09  -3921.988175  15753.036340 -21079.822809   -315.708690
PG10  -3119.030622 -14949.026839  21815.462968    -45.513781
PG11 -14586.892220   6671.139304  20732.839633    -45.055026
PG12  24539.203198  -9729.213063  -2266.383805      9.016764
PG13  21578.943107  11103.919950  10797.957455     89.047013
PG14    313.599244  15795.428617  21341.979078     89.535671
PG16 -23151.198720  -2362.879907 -13454.608372   -269.278845
PG17  11584.112660  20824.221389  12170.043679    383.844702
PG18   5111.083203 -25991.107833  -1471.872493    343.199315
PG19  17053.645392  19963.241925   4025.075437    -48.142559
PG20   8792.733850 -18960.127848  16174.688023    525.037527
PG21 -15426.740256   6697.437296  21208.037462     89.300720
PG22 -24388.151620   9607.696374   3878.458562   -693.080803
PG23   8805.047804 -17491.276295  17901.613854    117.052413
PG24  14723.846271 -10748.258776  18945.715890      3.308078
PG25  15309.692222 -16734.639271 -13842.134755     65.619426
PG26 -15310.325834  -8859.424380 -19934.636257     34.176039
PG27 -22964.555754 -11691.071574   7019.556024    -61.795597
PG28   3404.139170  14815.988127  22351.338922    625.783668
PG29   5342.318730 -14486.930757 -21643.044013   -281.214335
PG30   1142.938330  25460.888446   7104.880600   -373.434972
PG31  -8320.763681 -19343.469280 -15976.511828    -95.640645
PG32 -13627.177459 -20105.902551  11033.199136     15.719763
PJ01 -31709.648761  15387.383446 -18498.078334   -337.479636
PJ02 -29631.650262  29998.584372   4221.874949      1.016219
PJ03 -24483.075611  24541.640504  29137.773145     -0.222132
PR01  -3940.446203 -11477.189387  22433.336252     73.904485
PR02 -22452.091148  -8126.300081   9097.443854    464.048394
PR03 -24119.878449    105.125762  -8344.345040     29.665682
PR04 -12096.663528   7982.394454 -20969.640121     71.146451
PR05   6597.547516  11451.381029 -21804.820247     65.245804
PR07  23826.822340   -473.626786   9064.529309    -42.241243
PR08  12040.344229  -8146.658379  21004.467507    -56.996906
PR09  10519.074455   4763.480082  22762.384654     20.147295
PR11  15025.483563 -20526.610648  -1930.561897      4.252129
PR12   3520.520418 -17847.985169 -17845.375657    199.011460
PR13  -9980.465931  -5029.142944 -22949.278584    -49.702104
PR14 -17898.346337  11134.650167 -14351.588311     60.170820
PR15 -15156.620970  20390.399089   2337.582134    105.765224
PR16  -2432.046824  17655.226146  18284.181828    -10.500316
PR17 -11393.120827   -806.318411  22819.582691    393.746707
PR18  -3670.974551  15706.301261  19762.570148     64.146915
PR19   5028.101296  24062.386528   6822.460661   -129.073088
PR20  12250.504150  18302.140212 -12816.145271   -431.756470
PR21  10971.018918   -274.930495 -23021.027556   -182.427193
PR22   2998.706044 -16712.833484 -19081.992346    -94.016593
PR24 -12864.379220 -17535.120470  13345.326552     28.841819
EOF
